     3.00           N                   E                   RINEX VERSION / TYPE
BRD_USR             ESA                 20190107 212033  UTCPGM / RUN BY / DATE
 GAL   5.2500E+01  2.7344E-02 -4.9438E-03  0.0000E+00       IONOSPHERIC CORR
GAUT  0.0000000000E+00 0.000000000E+00  86400 2035 GSTB   0 TIME SYSTEM CORR
GPGA -3.7834979594E-10 1.065814104E-14 172800 2035 GSTB   0 TIME SYSTEM CORR
                                                            END OF HEADER
E36 2019 01 07 18 50 00 7.623679121025E-04-4.462208380573E-12 0.000000000000E+00
     1.000000000000E+00-1.307500000000E+02 2.941551098839E-09 8.148484042439E-01
    -6.100162863731E-06 3.286731662229E-04 5.103647708893E-07 5.440598539352E+03
     1.542000000000E+05-3.352761268616E-08-8.667848209527E-01-1.676380634308E-08
     9.851724788567E-01 3.409687500000E+02-1.622929463561E+00-5.829171379814E-09
    -2.767972440020E-10 5.210000000000E+02 2.035000000000E+03 0.000000000000E+00
     3.120000000000E+00 4.550000000000E+02 9.313225746155E-10 1.164153218269E-09
     1.553050000000E+05 0.000000000000E+00 0.000000000000E+00 0.000000000000E+00
E18 2019 01 07 18 50 00 5.623565637507E-03-2.847855284926E-11 0.000000000000E+00
     1.000000000000E+00 3.403125000000E+01 4.056954702733E-09-1.200408391588E+00
     3.961846232414E-06 1.664087215904E-01 2.147629857063E-06 5.289342737198E+03
     1.542000000000E+05 1.890584826469E-06-1.445173629054E+00 6.396323442459E-06
     8.817678055570E-01 3.006250000000E+02 1.438940748081E+00-5.723095532758E-09
    -1.290053735916E-09 5.210000000000E+02 2.035000000000E+03 0.000000000000E+00
     3.120000000000E+00 4.550000000000E+02 1.420266926289E-08 1.583248376846E-08
     1.553950000000E+05 0.000000000000E+00 0.000000000000E+00 0.000000000000E+00
E18 2019 01 07 18 50 00 5.623563600238E-03-2.846434199455E-11 0.000000000000E+00
     1.000000000000E+00 3.403125000000E+01 4.056954702733E-09-1.200408391588E+00
     3.961846232414E-06 1.664087215904E-01 2.147629857063E-06 5.289342737198E+03
     1.542000000000E+05 1.890584826469E-06-1.445173629054E+00 6.396323442459E-06
     8.817678055570E-01 3.006250000000E+02 1.438940748081E+00-5.723095532758E-09
    -1.290053735916E-09 2.580000000000E+02 2.035000000000E+03 0.000000000000E+00
     3.120000000000E+00 5.600000000000E+01 1.420266926289E-08 0.000000000000E+00
     1.554000000000E+05 0.000000000000E+00 0.000000000000E+00 0.000000000000E+00
E04 2019 01 07 19 00 00-1.952836755663E-04-7.858602657507E-12 0.000000000000E+00
     2.000000000000E+00 3.587500000000E+01 3.535504410807E-09 2.991919655772E+00
     1.631677150726E-06 7.540185470134E-05 7.014721632004E-06 5.440611040115E+03
     1.548000000000E+05-3.166496753693E-08 1.243755630043E+00 1.117587089539E-08
     9.523070499025E-01 1.836250000000E+02 2.031832264781E+00-5.678450815984E-09
     6.218116152354E-10 5.210000000000E+02 2.035000000000E+03 0.000000000000E+00
     3.120000000000E+00 0.000000000000E+00-8.149072527885E-09-9.080395102501E-09
     1.554850000000E+05 0.000000000000E+00 0.000000000000E+00 0.000000000000E+00
E05 2019 01 07 19 00 00 1.290190848522E-04-6.565414878423E-12 0.000000000000E+00
     2.000000000000E+00 3.737500000000E+01 3.608721746317E-09 1.874201857196E+00
     1.724809408188E-06 1.389344688505E-04 6.904825568199E-06 5.440610198975E+03
     1.548000000000E+05-2.235174179077E-08 1.243688847833E+00 1.862645149231E-08
     9.522769430485E-01 1.904375000000E+02 1.576334162222E+00-5.668093241692E-09
     6.346692936664E-10 5.210000000000E+02 2.035000000000E+03 0.000000000000E+00
     3.120000000000E+00 0.000000000000E+00-1.396983861923E-09-1.629814505577E-09
     1.554850000000E+05 0.000000000000E+00 0.000000000000E+00 0.000000000000E+00
E07 2019 01 07 19 00 00-1.082864473574E-04-7.077005648171E-12 0.000000000000E+00
     2.000000000000E+00 2.500000000000E+01 3.531218517997E-09 1.069203151643E+00
     1.009553670883E-06 1.374415587634E-04 7.236376404762E-06 5.440610372543E+03
     1.548000000000E+05 5.774199962616E-08 1.243706247780E+00-5.587935447693E-09
     9.523076058114E-01 1.818125000000E+02 2.343573258090E-02-5.606662111410E-09
     6.468126566291E-10 5.210000000000E+02 2.035000000000E+03 0.000000000000E+00
     3.120000000000E+00 0.000000000000E+00 2.328306436539E-10 2.328306436539E-10
     1.554850000000E+05 0.000000000000E+00 0.000000000000E+00 0.000000000000E+00
E08 2019 01 07 19 00 00 6.427954649553E-03-7.432277016051E-12 0.000000000000E+00
     2.000000000000E+00 2.443750000000E+01 3.406927626496E-09 1.401795524490E+00
     1.136213541031E-06 2.198303118348E-04 7.260590791702E-06 5.440609983444E+03
     1.548000000000E+05 2.607703208923E-08 1.235072308622E+00 3.911554813385E-08
     9.582511537726E-01 1.810000000000E+02 4.774795351106E-01-5.545230981128E-09
     6.735994866938E-10 5.210000000000E+02 2.035000000000E+03 0.000000000000E+00
     3.120000000000E+00 0.000000000000E+00-8.614733815193E-09-9.778887033463E-09
     1.554850000000E+05 0.000000000000E+00 0.000000000000E+00 0.000000000000E+00
E13 2019 01 07 19 00 00 3.814478404820E-04 4.121147867409E-13 0.000000000000E+00
     2.000000000000E+00-1.125937500000E+02 2.914407111040E-09-1.500884045251E+00
    -5.211681127548E-06 3.366348100826E-04-2.682209014893E-07 5.440597906113E+03
     1.548000000000E+05 2.607703208923E-08-8.667786766968E-01 6.705522537231E-08
     9.851679774578E-01 3.593437500000E+02-1.587923794234E+00-5.870244519247E-09
    -2.078658013021E-10 5.210000000000E+02 2.035000000000E+03 0.000000000000E+00
     3.120000000000E+00 4.550000000000E+02-4.423782229424E-09-5.355104804039E-09
     1.554850000000E+05 0.000000000000E+00 0.000000000000E+00 0.000000000000E+00
E14 2019 01 07 19 00 00 6.463312252890E-03-5.670131031366E-12 0.000000000000E+00
     2.000000000000E+00 2.346875000000E+02 4.005166831275E-09 2.052392895202E+00
     7.659196853638E-06 1.663588549709E-01-7.435679435730E-06 5.289407367706E+03
     1.548000000000E+05 2.427026629448E-06-1.462387121928E+00-1.290813088417E-06
     8.825575399383E-01 4.375625000000E+02 1.454397972691E+00-6.309191374574E-09
    -4.321608583773E-11 5.210000000000E+02 2.035000000000E+03 0.000000000000E+00
     3.120000000000E+00 4.550000000000E+02 3.329478204250E-08 3.748573362827E-08
     1.554850000000E+05 0.000000000000E+00 0.000000000000E+00 0.000000000000E+00
E15 2019 01 07 19 00 00 9.235902689397E-04-1.051603248925E-12 0.000000000000E+00
     2.000000000000E+00-1.277187500000E+02 2.916907215179E-09-6.341589801127E-01
    -5.833804607391E-06 3.844461170956E-04-1.918524503708E-07 5.440593130112E+03
     1.548000000000E+05-7.823109626770E-08-8.667900933095E-01 9.313225746155E-08
     9.851266134491E-01 3.574062500000E+02-1.672423801861E+00-5.809527704434E-09
    -2.428672592533E-10 5.210000000000E+02 2.035000000000E+03 0.000000000000E+00
     3.120000000000E+00 4.550000000000E+02 1.396983861923E-09 1.164153218269E-09
     1.554850000000E+05 0.000000000000E+00 0.000000000000E+00 0.000000000000E+00
E18 2019 01 07 19 00 00 5.623548524454E-03-2.847855284926E-11 0.000000000000E+00
     2.000000000000E+00 3.396875000000E+01 4.755198073087E-09-1.119470561688E+00
     3.905966877937E-06 1.664073979482E-01 3.058463335037E-06 5.289336757660E+03
     1.548000000000E+05 1.043081283569E-07-1.445177008395E+00 6.128102540970E-06
     8.817623942230E-01 2.893125000000E+02 1.438953585187E+00-7.004220325319E-09
    -1.249694911952E-09 5.210000000000E+02 2.035000000000E+03 0.000000000000E+00
     3.120000000000E+00 4.550000000000E+02 1.420266926289E-08 1.583248376846E-08
     1.554850000000E+05 0.000000000000E+00 0.000000000000E+00 0.000000000000E+00
E19 2019 01 07 19 00 00-9.303039405495E-06 2.984279490192E-13 0.000000000000E+00
     2.000000000000E+00 2.762500000000E+01 3.419070989459E-09-2.723970317875E+00
     1.361593604088E-06 1.346602803096E-04 7.009133696556E-06 5.440612930298E+03
     1.548000000000E+05-5.587935447693E-09 1.240425820760E+00-5.401670932770E-08
     9.580365202837E-01 1.904687500000E+02 2.325167459186E+00-5.569874864788E-09
     6.418124483504E-10 5.210000000000E+02 2.035000000000E+03 0.000000000000E+00
     3.120000000000E+00 0.000000000000E+00-8.847564458847E-09-9.313225746155E-09
     1.554850000000E+05 0.000000000000E+00 0.000000000000E+00 0.000000000000E+00
E26 2019 01 07 19 00 00 5.045999947470E-03-4.331468517194E-11 0.000000000000E+00
     2.000000000000E+00-1.110312500000E+02 3.057627362453E-09-1.789189142132E+00
    -5.194917321205E-06 3.251075977460E-04-2.961605787277E-07 5.440605787277E+03
     1.548000000000E+05 8.195638656616E-08-8.578472809426E-01 4.097819328308E-08
     9.782860333800E-01 3.555625000000E+02-2.081435975226E+00-5.887388090488E-09
    -2.435815747217E-10 5.210000000000E+02 2.035000000000E+03 0.000000000000E+00
     3.120000000000E+00 0.000000000000E+00 1.164153218269E-09 1.164153218269E-09
     1.554850000000E+05 0.000000000000E+00 0.000000000000E+00 0.000000000000E+00
E27 2019 01 07 19 00 00 5.543773295358E-04-7.702283255639E-12 0.000000000000E+00
     2.000000000000E+00 9.859375000000E+01 2.445816163775E-09-6.510398873388E-02
     4.569068551064E-06 2.085042651743E-04 1.284666359425E-05 5.440632574081E+03
     1.548000000000E+05-1.490116119385E-08-2.949622463341E+00 1.154839992523E-07
     9.898575500773E-01 7.843750000000E+01-9.138225248104E-01-5.130928009461E-09
    -4.632335812523E-10 5.210000000000E+02 2.035000000000E+03 0.000000000000E+00
     3.120000000000E+00 0.000000000000E+00-2.793967723846E-09-3.259629011154E-09
     1.554850000000E+05 0.000000000000E+00 0.000000000000E+00 0.000000000000E+00
